NORAD_CAT_ID,OBJECT_NAME,OBJECT_TYPE,EPOCH,MEAN_MOTION,ECCENTRICITY,INCLINATION,RA_OF_ASC_NODE,ARG_OF_PERICENTER,MEAN_ANOMALY,BSTAR,MEAN_MOTION_DOT,MEAN_MOTION_DDOT,TLE_LINE0,TLE_LINE1,TLE_LINE2,SEMIMAJOR_AXIS,PERIOD,APOGEE,PERIGEE,DECAYED
54093.0,STARLINK-5213,PAYLOAD,2023-10-14 09:07:19,15.08852824,0.0001926,53.2178,312.2718,98.6013,261.5197,0.00027146,4.036e-05,0.0,0 STARLINK-5213,1 54093U 22136AU  23287.38008135  .00004036  00000-0  27146-3 0  9991,2 54093  53.2178 312.2718 0001926  98.6013 261.5197 15.08852824 55013,6917.841,95.437,541.039,538.374,0.0
54093.0,STARLINK-5213,PAYLOAD,2023-10-14 12:18:05,15.08859909,0.0002051,53.2178,311.6757,96.8312,263.2914,0.00043846,6.701e-05,0.0,0 STARLINK-5213,1 54093U 22136AU  23287.51255865  .00006701  00000-0  43846-3 0  9996,2 54093  53.2178 311.6757 0002051  96.8312 263.2914 15.08859909 54567,6917.82,95.436,541.103,538.266,0.0
54093.0,STARLINK-5213,PAYLOAD,2023-10-14 18:39:38,15.08834655,0.0002495,53.2177,310.4831,88.8338,271.294,-0.0001116,-2.064e-05,0.0,0 STARLINK-5213,1 54093U 22136AU  23287.77752752 -.00002064  00000-0 -11160-3 0  9995,2 54093  53.2177 310.4831 0002495  88.8338 271.2940 15.08834655 55073,6917.897,95.438,541.488,538.036,0.0
54093.0,STARLINK-5213,PAYLOAD,2023-10-15 08:58:07,15.08822638,0.0001681,53.2169,307.8101,87.7404,272.3781,-0.000213,-3.675e-05,0.0,0 STARLINK-5213,1 54093U 22136AU  23288.37369598 -.00003675  00000-0 -21300-3 0  9990,2 54093  53.2169 307.8101 0001681  87.7404 272.3781 15.08822638 55165,6917.933,95.439,540.961,538.636,0.0
54093.0,STARLINK-5213,PAYLOAD,2023-10-15 18:30:26,15.08831626,0.0001787,53.2176,306.0249,89.0248,271.0949,4.8106e-05,4.77e-06,0.0,0 STARLINK-5213,1 54093U 22136AU  23288.77113716  .00000477  00000-0  48106-4 0  9992,2 54093  53.2176 306.0249 0001787  89.0248 271.0949 15.08831626 55221,6917.906,95.438,541.007,538.535,0.0
54093.0,STARLINK-5213,PAYLOAD,2023-10-16 08:48:54,15.08848027,0.0001627,53.2171,303.3497,87.3042,272.8136,0.00055946,8.629e-05,0.0,0 STARLINK-5213,1 54093U 22136AU  23289.36729502  .00008629  00000-0  55946-3 0  9990,2 54093  53.2171 303.3497 0001627  87.3042 272.8136 15.08848027 55317,6917.856,95.437,540.846,538.595,0.0
54093.0,STARLINK-5213,PAYLOAD,2023-10-17 07:04:18,15.08849162,0.0001721,53.2172,299.1842,92.3156,267.8033,0.00038992,5.925e-05,0.0,0 STARLINK-5213,1 54093U 22136AU  23290.29465412  .00005925  00000-0  38992-3 0  9999,2 54093  53.2172 299.1842 0001721  92.3156 267.8033 15.08849162 55457,6917.852,95.437,540.908,538.527,0.0
54093.0,STARLINK-5213,PAYLOAD,2023-10-18 00:33:33,15.0882543,0.0001894,53.2176,295.9135,88.6624,271.4585,-0.0001524,-2.712e-05,0.0,0 STARLINK-5213,1 54093U 22136AU  23291.02330701 -.00002712  00000-0 -15240-3 0  9997,2 54093  53.2176 295.9135 0001894  88.6624 271.4585 15.08825430 55094,6917.925,95.438,541.1,538.48,0.0
54093.0,STARLINK-5213,PAYLOAD,2023-10-18 10:05:53,15.08817149,0.0001597,53.2172,294.1278,96.072,264.0455,-0.00023823,-4.075e-05,0.0,0 STARLINK-5213,1 54093U 22136AU  23291.42075444 -.00004075  00000-0 -23823-3 0  9991,2 54093  53.2172 294.1278 0001597  96.0720 264.0455 15.08817149 55620,6917.95,95.439,540.92,538.71,0.0
54093.0,STARLINK-5213,PAYLOAD,2023-10-19 05:10:30,15.08848173,0.0001658,53.218,290.5594,96.1739,263.9442,0.00048435,7.431e-05,0.0,0 STARLINK-5213,1 54093U 22136AU  23292.21562893  .00007431  00000-0  48435-3 0  9991,2 54093  53.2180 290.5594 0001658  96.1739 263.9442 15.08848173 55747,6917.855,95.437,540.867,538.573,0.0
54093.0,STARLINK-5213,PAYLOAD,2023-10-19 09:56:39,15.08861108,0.000162,53.2179,289.6658,94.6632,265.4545,0.0007281,0.00011325,0.0,0 STARLINK-5213,1 54093U 22136AU  23292.41434525  .00011325  00000-0  72810-3 0  9994,2 54093  53.2179 289.6658 0001620  94.6632 265.4545 15.08861108 55305,6917.816,95.436,540.802,538.56,0.0
54093.0,STARLINK-5213,PAYLOAD,2023-10-20 05:01:16,15.08878531,0.0001433,53.2178,286.1012,97.9284,262.1871,0.00088911,0.00013905,0.0,0 STARLINK-5213,1 54093U 22136AU  23293.20921660  .00013905  00000-0  88911-3 0  9998,2 54093  53.2178 286.1012 0001433  97.9284 262.1871 15.08878531 55899,6917.763,95.435,540.619,538.636,0.0
54093.0,STARLINK-5213,PAYLOAD,2023-10-20 06:36:39,15.08880777,0.0001343,53.2178,285.8046,100.2998,259.8146,0.0018057,0.00028599,0.0,0 STARLINK-5213,1 54093U 22136AU  23293.27545612  .00028599  00000-0  18057-2 0  9992,2 54093  53.2178 285.8046 0001343 100.2998 259.8146 15.08880777 55435,6917.756,95.435,540.55,538.692,0.0
54093.0,STARLINK-5213,PAYLOAD,2023-10-20 22:30:30,15.08858775,0.0001735,53.2181,282.8293,103.8307,256.2879,0.001483,0.00023405,0.0,0 STARLINK-5213,1 54093U 22136AU  23293.93785603  .00023405  00000-0  14830-2 0  9997,2 54093  53.2181 282.8293 0001735 103.8307 256.2879 15.08858775 55536,6917.823,95.436,540.888,538.488,0.0
54093.0,STARLINK-5213,PAYLOAD,2023-10-21 00:05:53,15.08851577,0.0001609,53.2183,282.53,103.2636,256.8536,0.00076993,0.00011991,0.0,0 STARLINK-5213,1 54093U 22136AU  23294.00409636  .00011991  00000-0  76993-3 0  9991,2 54093  53.2183 282.5300 0001609 103.2636 256.8536 15.08851577 56016,6917.845,95.437,540.823,538.597,0.0
54093.0,STARLINK-5213,PAYLOAD,2023-10-21 04:52:03,15.08835635,0.0001473,53.218,281.6397,99.81,260.3058,0.00092998,0.00014542,0.0,0 STARLINK-5213,1 54093U 22136AU  23294.20281819  .00014542  00000-0  92998-3 0  9992,2 54093  53.2180 281.6397 0001473  99.8100 260.3058 15.08835635 56043,6917.894,95.438,540.778,538.74,0.0
54093.0,STARLINK-5213,PAYLOAD,2023-10-21 15:59:45,15.08842465,0.0001258,53.2174,279.5572,93.946,266.1676,0.00030564,4.58e-05,0.0,0 STARLINK-5213,1 54093U 22136AU  23294.66649737  .00004580  00000-0  30564-3 0  9991,2 54093  53.2174 279.5572 0001258  93.9460 266.1676 15.08842465 55646,6917.873,95.437,540.608,538.868,0.0
54093.0,STARLINK-5213,PAYLOAD,2023-10-22 07:53:36,15.08864791,0.0001453,53.2174,276.5852,87.5756,272.5402,0.00081893,0.00012778,0.0,0 STARLINK-5213,1 54093U 22136AU  23295.32889055  .00012778  00000-0  81893-3 0  9993,2 54093  53.2174 276.5852 0001453  87.5756 272.5402 15.08864791 56216,6917.805,95.436,540.675,538.664,0.0
54093.0,STARLINK-5213,PAYLOAD,2023-10-22 15:50:31,15.08855657,0.00016,53.2181,275.0976,78.8893,281.2279,0.0004336,6.622e-05,0.0,0 STARLINK-5213,1 54093U 22136AU  23295.66009097  .00006622  00000-0  43360-3 0  9998,2 54093  53.2181 275.0976 0001600  78.8893 281.2279 15.08855657 56269,6917.833,95.437,540.804,538.591,0.0
54093.0,STARLINK-5213,PAYLOAD,2023-10-23 04:33:37,15.08831927,0.0001571,53.2169,272.7196,81.5753,278.5417,-0.00010674,-1.986e-05,0.0,0 STARLINK-5213,1 54093U 22136AU  23296.19001687 -.00001986  00000-0 -10674-3 0  9996,2 54093  53.2169 272.7196 0001571  81.5753 278.5417 15.08831927 56342,6917.905,95.438,540.857,538.683,0.0
54093.0,STARLINK-5213,PAYLOAD,2023-10-23 06:09:00,15.08832043,0.000152,53.2168,272.4223,80.9229,279.1936,1.6786e-05,-2.1e-07,0.0,0 STARLINK-5213,1 54093U 22136AU  23296.25625747 -.00000021  00000-0  16786-4 0  9991,2 54093  53.2168 272.4223 0001520  80.9229 279.1936 15.08832043 55885,6917.905,95.438,540.821,538.718,0.0
54093.0,STARLINK-5213,PAYLOAD,2023-10-24 05:59:48,15.0884202,0.0001562,53.2162,267.9628,81.3357,278.7812,0.00076914,0.00011975,0.0,0 STARLINK-5213,1 54093U 22136AU  23297.24986537  .00011975  00000-0  76914-3 0  9995,2 54093  53.2162 267.9628 0001562  81.3357 278.7812 15.08842020 56504,6917.874,95.437,540.82,538.659,0.0
54093.0,STARLINK-5213,PAYLOAD,2023-10-25 07:25:58,15.08855498,0.000159,53.2165,263.2027,86.8268,273.2906,0.00056954,8.792e-05,0.0,0 STARLINK-5213,1 54093U 22136AU  23298.30970041  .00008792  00000-0  56954-3 0  9991,2 54093  53.2165 263.2027 0001590  86.8268 273.2906 15.08855498 56665,6917.833,95.437,540.798,538.598,0.0
54093.0,STARLINK-5213,PAYLOAD,2023-10-26 04:05:58,15.0885089,0.0001662,53.217,259.3339,99.7348,260.3832,0.00026836,3.987e-05,0.0,0 STARLINK-5213,1 54093U 22136AU  23299.17081870  .00003987  00000-0  26836-3 0  9997,2 54093  53.2170 259.3339 0001662  99.7348 260.3832 15.08850890 56795,6917.847,95.437,540.862,538.562,0.0
54093.0,STARLINK-5213,PAYLOAD,2023-10-26 07:16:44,15.08850244,0.0001768,53.218,258.7393,102.3365,257.7825,0.00024684,3.644e-05,0.0,0 STARLINK-5213,1 54093U 22136AU  23299.30329771  .00003644  00000-0  24684-3 0  9996,2 54093  53.2180 258.7393 0001768 102.3365 257.7825 15.08850244 56342,6917.849,95.437,540.937,538.491,0.0
54093.0,STARLINK-5213,PAYLOAD,2023-10-27 03:56:45,15.08854183,0.0001506,53.2166,254.8768,95.2409,264.8755,0.00015182,2.13e-05,0.0,0 STARLINK-5213,1 54093U 22136AU  23300.16441436  .00002130  00000-0  15182-3 0  9998,2 54093  53.2166 254.8768 0001506  95.2409 264.8755 15.08854183 56941,6917.837,95.437,540.744,538.66,0.0
54093.0,STARLINK-5213,PAYLOAD,2023-10-27 21:26:00,15.08836774,0.0001455,53.2164,251.6026,94.8858,265.23,1.6967e-05,-1.8e-07,0.0,0 STARLINK-5213,1 54093U 22136AU  23300.89306285 -.00000018  00000-0  16967-4 0  9997,2 54093  53.2164 251.6026 0001455  94.8858 265.2300 15.08836774 57057,6917.89,95.438,540.762,538.749,0.0
54093.0,STARLINK-5213,PAYLOAD,2023-10-28 06:58:19,15.08838427,0.0001493,53.2173,249.8222,95.8797,264.2366,3.7866e-05,3.15e-06,0.0,0 STARLINK-5213,1 54093U 22136AU  23301.29050369  .00000315  00000-0  37866-4 0  9991,2 54093  53.2173 249.8222 0001493  95.8797 264.2366 15.08838427 56641,6917.885,95.438,540.783,538.717,0.0
54093.0,STARLINK-5213,PAYLOAD,2023-10-29 03:38:19,15.08855454,0.0001389,53.2172,245.9562,92.9103,267.2048,0.0002314,3.398e-05,0.0,0 STARLINK-5213,1 54093U 22136AU  23302.15161684  .00003398  00000-0  23140-3 0  9993,2 54093  53.2172 245.9562 0001389  92.9103 267.2048 15.08855454 57243,6917.833,95.437,540.659,538.737,0.0
54093.0,STARLINK-5213,PAYLOAD,2023-10-29 13:10:38,15.08853037,0.0001415,53.2187,244.1729,85.5295,274.5858,-8.9714e-05,-1.716e-05,0.0,0 STARLINK-5213,1 54093U 22136AU  23302.54905556 -.00001716  00000-0 -89714-4 0  9994,2 54093  53.2187 244.1729 0001415  85.5295 274.5858 15.08853037 56834,6917.841,95.437,540.684,538.727,0.0
